GLOBALSTAR M075         
1 37192U 10054E   25016.92637203 -.00000062  00000+0  23441-3 0  9993
2 37192  51.9952 282.0943 0000879  67.1485  13.1491 12.62271944657272
GLOBALSTAR M073         
1 37193U 10054F   25016.86259554 -.00000114  00000+0 -59441-4 0  9995
2 37193  52.0030 195.9902 0001097  84.0395  65.5575 12.62262570658775
GLOBALSTAR M083         
1 37739U 11033A   25016.79977199 -.00000099  00000+0  24897-4 0  9991
2 37739  51.9847 145.1185 0000766 111.1905  53.4878 12.62270722628098
GLOBALSTAR M088         
1 37740U 11033B   25016.53344010 -.00000083  00000+0  11696-3 0  9990
2 37740  51.9746  51.5486 0000298 136.2583  17.8386 12.62267419623241
GLOBALSTAR M091         
1 37741U 11033C   25016.47026782 -.00000096  00000+0  40797-4 0  9996
2 37741  52.0021  15.0258 0000077 211.0875 315.1704 12.62272696624289
GLOBALSTAR M085         
1 37742U 11033D   25016.29578657 -.00000078  00000+0  14383-3 0  9991
2 37742  51.9889 326.7306 0000302  40.2264 113.0277 12.62263926624513
GLOBALSTAR M081         
1 37743U 11033E   25016.32297375 -.00000091  00000+0  73568-4 0  9997
2 37743  51.9980 329.3388 0000554  22.0425 136.2059 12.62275279624666
GLOBALSTAR M089         
1 37744U 11033F   25016.81927397 -.00000069  00000+0  19226-3 0  9991
2 37744  51.9933 282.0874 0001037  62.0766  11.2862 12.62265194625827
